[{"OBJECT_NAME":"HAWK-C","OBJECT_ID":"2018-099AT","EPOCH":"2026-03-09T16:08:34.251360","MEAN_MOTION":15.26407167,"ECCENTRICITY":0.00403625,"INCLINATION":97.4027,"RA_OF_ASC_NODE":122.6817,"ARG_OF_PERICENTER":277.4052,"MEAN_ANOMALY":82.2601,"EPHEMERIS_TYPE":0,"CLASSIFICATION_TYPE":"U","NORAD_CAT_ID":43799,"ELEMENT_SET_NO":999,"REV_AT_EPOCH":39872,"BSTAR":0.00035662773,"MEAN_MOTION_DOT":9.431e-5,"MEAN_MOTION_DDOT":0},{"OBJECT_NAME":"SCS-01 C","OBJECT_ID":"2025-100C","EPOCH":"2026-03-09T21:59:59.204544","MEAN_MOTION":15.20980224,"ECCENTRICITY":0.00246678,"INCLINATION":97.3736,"RA_OF_ASC_NODE":143.8302,"ARG_OF_PERICENTER":335.341,"MEAN_ANOMALY":24.6645,"EPHEMERIS_TYPE":0,"CLASSIFICATION_TYPE":"U","NORAD_CAT_ID":63984,"ELEMENT_SET_NO":999,"REV_AT_EPOCH":4553,"BSTAR":0.00052394566,"MEAN_MOTION_DOT":0.00011645,"MEAN_MOTION_DDOT":0}]
